NORAD_CAT_ID,OBJECT_NAME,OBJECT_TYPE,EPOCH,MEAN_MOTION,ECCENTRICITY,INCLINATION,RA_OF_ASC_NODE,ARG_OF_PERICENTER,MEAN_ANOMALY,BSTAR,MEAN_MOTION_DOT,MEAN_MOTION_DDOT,TLE_LINE0,TLE_LINE1,TLE_LINE2,SEMIMAJOR_AXIS,PERIOD,APOGEE,PERIGEE,DECAYED
55404.0,STARLINK-5607,PAYLOAD,2024-05-27 12:28:43,14.98320758,0.0003261,69.9993,266.3978,261.4211,98.6578,0.00015368,1.741e-05,0.0,0 STARLINK-5607,1 55404U 23014P   24148.51995281  .00001741  00000-0  15368-3 0  9996,2 55404  69.9993 266.3978 0003261 261.4211  98.6578 14.98320758 73577,6950.221,96.108,574.353,569.82,0.0
55404.0,STARLINK-5607,PAYLOAD,2024-05-27 14:04:51,14.98333079,0.0003358,69.9993,266.2299,260.3163,99.7617,0.00025328,2.931e-05,0.0,0 STARLINK-5607,1 55404U 23014P   24148.58670328  .00002931  00000-0  25328-3 0  9994,2 55404  69.9993 266.2299 0003358 260.3163  99.7617 14.98333079 74525,6950.183,96.107,574.382,569.714,0.0
55404.0,STARLINK-5607,PAYLOAD,2024-05-27 17:17:07,14.98327847,0.0003005,70.0002,265.8949,252.5515,107.5316,9.4675e-05,1.037e-05,0.0,0 STARLINK-5607,1 55404U 23014P   24148.72023061  .00001037  00000-0  94675-4 0  9994,2 55404  70.0002 265.8949 0003005 252.5515 107.5316 14.98327847 74541,6950.2,96.107,574.153,569.976,0.0
55404.0,STARLINK-5607,PAYLOAD,2024-05-28 12:30:44,14.98334623,0.0003064,70.0003,263.8754,252.7993,107.2831,4.2651e-05,4.16e-06,0.0,0 STARLINK-5607,1 55404U 23014P   24149.52134624  .00000416  00000-0  42651-4 0  9998,2 55404  70.0003 263.8754 0003064 252.7993 107.2831 14.98334623 73729,6950.179,96.107,574.173,569.914,0.0
55404.0,STARLINK-5607,PAYLOAD,2024-05-28 14:06:52,14.98334341,0.000307,70.0003,263.7073,256.2134,103.8683,5.126e-05,5.19e-06,0.0,0 STARLINK-5607,1 55404U 23014P   24149.58810609  .00000519  00000-0  51260-4 0  9998,2 55404  70.0003 263.7073 0003070 256.2134 103.8683 14.98334341 74674,6950.179,96.107,574.178,569.911,0.0
55404.0,STARLINK-5607,PAYLOAD,2024-05-28 17:19:08,14.98335914,0.0003154,70.0002,263.3713,260.6351,99.4452,2.8817e-05,2.51e-06,0.0,0 STARLINK-5607,1 55404U 23014P   24149.72162537  .00000251  00000-0  28817-4 0  9999,2 55404  70.0002 263.3713 0003154 260.6351  99.4452 14.98335914 74696,6950.175,96.107,574.232,569.848,0.0
55404.0,STARLINK-5607,PAYLOAD,2024-05-29 12:32:45,14.9832586,0.0002958,70.0004,261.3494,258.9695,101.1131,1.5124e-05,8.7e-07,0.0,0 STARLINK-5607,1 55404U 23014P   24150.52275088  .00000087  00000-0  15124-4 0  9999,2 55404  70.0004 261.3494 0002958 258.9695 101.1131 14.98325860 73877,6950.206,96.107,574.127,570.015,0.0
55404.0,STARLINK-5607,PAYLOAD,2024-05-29 14:08:53,14.98324683,0.0003135,70.0005,261.1812,265.0944,94.9857,2.8047e-05,2.42e-06,0.0,0 STARLINK-5607,1 55404U 23014P   24150.58951155  .00000242  00000-0  28047-4 0  9992,2 55404  70.0005 261.1812 0003135 265.0944  94.9857 14.98324683 74826,6950.209,96.107,574.253,569.895,0.0
55404.0,STARLINK-5607,PAYLOAD,2024-05-29 17:21:09,14.98326282,0.0003014,70.0005,260.8446,260.972,99.1098,1.8427e-05,1.27e-06,0.0,0 STARLINK-5607,1 55404U 23014P   24150.72303097  .00000127  00000-0  18427-4 0  9997,2 55404  70.0005 260.8446 0003014 260.9720  99.1098 14.98326282 74840,6950.204,96.107,574.164,569.975,0.0
55404.0,STARLINK-5607,PAYLOAD,2024-05-30 10:58:37,14.98339064,0.0003143,70.0002,258.993,263.8704,96.2097,4.2289e-05,4.12e-06,0.0,0 STARLINK-5607,1 55404U 23014P   24151.45737994  .00000412  00000-0  42289-4 0  9995,2 55404  70.0002 258.9930 0003143 263.8704  96.2097 14.98339064 74018,6950.165,96.106,574.214,569.845,0.0
55404.0,STARLINK-5607,PAYLOAD,2024-05-30 14:10:53,14.98340237,0.0003129,70.0002,258.6563,263.9283,96.1519,5.7703e-05,5.96e-06,0.0,0 STARLINK-5607,1 55404U 23014P   24151.59089825  .00000596  00000-0  57703-4 0  9993,2 55404  70.0002 258.6563 0003129 263.9283  96.1519 14.98340237 74971,6950.161,96.106,574.201,569.852,0.0
55404.0,STARLINK-5607,PAYLOAD,2024-05-30 17:23:09,14.98341408,0.0003125,70.0002,258.3194,264.9071,95.1731,7.0047e-05,7.43e-06,0.0,0 STARLINK-5607,1 55404U 23014P   24151.72441640  .00000743  00000-0  70047-4 0  9995,2 55404  70.0002 258.3194 0003125 264.9071  95.1731 14.98341408 74998,6950.158,96.106,574.195,569.851,0.0
55404.0,STARLINK-5607,PAYLOAD,2024-05-31 12:36:47,14.98327418,0.0002994,70.0004,256.2995,263.6281,96.4537,2.7594e-05,2.36e-06,0.0,0 STARLINK-5607,1 55404U 23014P   24152.52554480  .00000236  00000-0  27594-4 0  9997,2 55404  70.0004 256.2995 0002994 263.6281  96.4537 14.98327418 74171,6950.201,96.107,574.147,569.985,0.0
55404.0,STARLINK-5607,PAYLOAD,2024-05-31 14:12:55,14.98327985,0.0002984,70.0004,256.1312,263.6644,96.4175,3.3069e-05,3.02e-06,0.0,0 STARLINK-5607,1 55404U 23014P   24152.59230434  .00000302  00000-0  33069-4 0  9992,2 55404  70.0004 256.1312 0002984 263.6644  96.4175 14.98327985 75128,6950.199,96.107,574.138,569.99,0.0
55404.0,STARLINK-5607,PAYLOAD,2024-05-31 15:49:03,14.98328665,0.0002976,70.0005,255.9629,263.8059,96.2762,3.9647e-05,3.8e-06,0.0,0 STARLINK-5607,1 55404U 23014P   24152.65906375  .00000380  00000-0  39647-4 0  9997,2 55404  70.0005 255.9629 0002976 263.8059  96.2762 14.98328665 75137,6950.197,96.107,574.13,569.994,0.0
55404.0,STARLINK-5607,PAYLOAD,2024-06-01 12:38:48,14.9833119,0.0003067,70.0001,253.7745,267.4506,92.6302,-9.8026e-05,-1.262e-05,0.0,0 STARLINK-5607,1 55404U 23014P   24153.52694565 -.00001262  00000-0 -98026-4 0  9997,2 55404  70.0001 253.7745 0003067 267.4506  92.6302 14.98331190 74324,6950.189,96.107,574.186,569.923,0.0
55404.0,STARLINK-5607,PAYLOAD,2024-06-01 14:14:56,14.98328587,0.0003141,70.0001,253.6064,266.1497,93.9303,-0.00012111,-1.538e-05,0.0,0 STARLINK-5607,1 55404U 23014P   24153.59370783 -.00001538  00000-0 -12111-3 0  9993,2 55404  70.0001 253.6064 0003141 266.1497  93.9303 14.98328587 75271,6950.197,96.107,574.245,569.879,0.0
55404.0,STARLINK-5607,PAYLOAD,2024-06-01 23:51:43,14.98373668,0.0003367,70.0,252.5965,263.1226,96.955,-0.00083938,-0.00010106,0.0,0 STARLINK-5607,1 55404U 23014P   24153.99425516 -.00010106  00000-0 -83938-3 0  9998,2 55404  70.0000 252.5965 0003367 263.1226  96.9550 14.98373668 74394,6950.058,96.104,574.263,569.583,0.0
55404.0,STARLINK-5607,PAYLOAD,2024-06-02 12:40:49,14.98326375,0.0003222,69.9998,251.2499,267.3237,92.7554,-3.7054e-06,-1.37e-06,0.0,0 STARLINK-5607,1 55404U 23014P   24154.52834775 -.00000137  00000-0 -37054-5 0  9992,2 55404  69.9998 251.2499 0003222 267.3237  92.7554 14.98326375 74473,6950.204,96.107,574.308,569.83,0.0
55404.0,STARLINK-5607,PAYLOAD,2024-06-03 11:06:41,14.98351802,0.0003335,69.9991,248.8926,273.263,86.8148,-0.00032871,-4.015e-05,0.0,0 STARLINK-5607,1 55404U 23014P   24155.46297950 -.00004015  00000-0 -32871-3 0  9993,2 55404  69.9991 248.8926 0003335 273.2630  86.8148 14.98351802 74613,6950.125,96.106,574.308,569.673,0.0
55404.0,STARLINK-5607,PAYLOAD,2024-06-03 23:55:46,14.98335296,0.0003451,69.9989,247.5454,269.839,90.2373,6.1411e-05,6.4e-06,0.0,0 STARLINK-5607,1 55404U 23014P   24155.99706118  .00000640  00000-0  61411-4 0  9993,2 55404  69.9989 247.5454 0003451 269.8390  90.2373 14.98335296 74691,6950.177,96.107,574.44,569.643,0.0
55404.0,STARLINK-5607,PAYLOAD,2024-06-04 12:44:50,14.983296,0.0003427,69.999,246.199,269.0521,91.0245,0.00022507,2.593e-05,0.0,0 STARLINK-5607,1 55404U 23014P   24156.53113990  .00002593  00000-0  22507-3 0  9995,2 55404  69.9990 246.1990 0003427 269.0521  91.0245 14.98329600 75717,6950.194,96.107,574.441,569.677,0.0
55404.0,STARLINK-5607,PAYLOAD,2024-06-05 04:46:11,14.98325569,0.0003606,69.9993,244.5174,269.5909,90.4836,-3.6653e-05,-5.3e-06,0.0,0 STARLINK-5607,1 55404U 23014P   24157.19874879 -.00000530  00000-0 -36653-4 0  9997,2 55404  69.9993 244.5174 0003606 269.5909  90.4836 14.98325569 74875,6950.207,96.107,574.578,569.565,0.0
55404.0,STARLINK-5607,PAYLOAD,2024-06-05 12:46:52,14.98323574,0.0003385,69.9991,243.6744,268.4474,91.6297,-6.8042e-05,-9.05e-06,0.0,0 STARLINK-5607,1 55404U 23014P   24157.53255208 -.00000905  00000-0 -68042-4 0  9997,2 55404  69.9991 243.6744 0003385 268.4474  91.6297 14.98323574 75863,6950.213,96.107,574.43,569.725,0.0
55404.0,STARLINK-5607,PAYLOAD,2024-06-05 22:23:40,14.98327312,0.0003349,69.9986,242.6629,269.4741,90.6034,-4.3194e-05,-6.08e-06,0.0,0 STARLINK-5607,1 55404U 23014P   24157.93310923 -.00000608  00000-0 -43194-4 0  9998,2 55404  69.9986 242.6629 0003349 269.4741  90.6034 14.98327312 75925,6950.201,96.107,574.394,569.739,0.0
55404.0,STARLINK-5607,PAYLOAD,2024-06-06 11:12:44,14.98334009,0.0003423,69.9986,241.3163,270.094,89.9827,2.8319e-05,2.45e-06,0.0,0 STARLINK-5607,1 55404U 23014P   24158.46718286  .00000245  00000-0  28319-4 0  9998,2 55404  69.9986 241.3163 0003423 270.0940  89.9827 14.98334009 75063,6950.18,96.107,574.425,569.666,0.0
55404.0,STARLINK-5607,PAYLOAD,2024-06-07 09:38:36,14.98327747,0.0003004,69.9985,238.9589,260.02,100.062,-3.7041e-06,-1.37e-06,0.0,0 STARLINK-5607,1 55404U 23014P   24159.40180737 -.00000137  00000-0 -37041-5 0  9992,2 55404  69.9985 238.9589 0003004 260.0200 100.0620 14.98327747 75202,6950.2,96.107,574.153,569.977,0.0
55404.0,STARLINK-5607,PAYLOAD,2024-06-07 16:03:09,14.98318636,0.0003318,69.9992,238.2873,269.8954,90.1825,-8.7032e-05,-1.131e-05,0.0,0 STARLINK-5607,1 55404U 23014P   24159.66885610 -.00001131  00000-0 -87032-4 0  9991,2 55404  69.9992 238.2873 0003318 269.8954  90.1825 14.98318636 75247,6950.228,96.108,574.399,569.787,0.0
55404.0,STARLINK-5607,PAYLOAD,2024-06-07 22:27:41,14.9831766,0.0003102,69.9994,237.6139,269.0357,91.0447,-0.00011972,-1.521e-05,0.0,0 STARLINK-5607,1 55404U 23014P   24159.93589878 -.00001521  00000-0 -11972-3 0  9990,2 55404  69.9994 237.6139 0003102 269.0357  91.0447 14.98317660 76222,6950.231,96.108,574.252,569.94,0.0
55404.0,STARLINK-5607,PAYLOAD,2024-06-08 14:29:02,14.98325202,0.0002982,69.9997,235.9322,264.4291,95.6528,-0.00014109,-1.776e-05,0.0,0 STARLINK-5607,1 55404U 23014P   24160.60349977 -.00001776  00000-0 -14109-3 0  9997,2 55404  69.9997 235.9322 0002982 264.4291  95.6528 14.98325202 76323,6950.208,96.107,574.145,570.0,0.0
